OBJECT_NAME,OBJECT_ID,EPOCH,MEAN_MOTION,ECCENTRICITY,INCLINATION,RA_OF_ASC_NODE,ARG_OF_PERICENTER,MEAN_ANOMALY,EPHEMERIS_TYPE,CLASSIFICATION_TYPE,NORAD_CAT_ID,ELEMENT_SET_NO,REV_AT_EPOCH,BSTAR,MEAN_MOTION_DOT,MEAN_MOTION_DDOT
TYVAK-0173,2021-059P,2026-07-24T03:10:19.348032,14.81992098,.00071591,96.0065,272.3042,261.1678,98.8730,0,U,48892,999,27371,.19998244E-3,.1555E-4,0
MANDRAKE 2 ABLE,2021-059AE,2026-07-24T02:16:15.927456,15.56389630,.00044735,97.7032,37.7339,196.7421,163.3686,0,U,48907,999,28286,.38733574E-3,.2728E-3,0
MANDRAKE 2 BAKER,2021-059AF,2026-07-24T07:08:48.876288,15.61393497,.00034592,97.6994,41.0941,183.5506,176.5726,0,U,48908,999,28308,.41618238E-3,.3544E-3,0
PACE-1,2021-059AG,2026-07-23T23:58:43.185216,15.87175094,.0003088,97.6727,47.4948,161.7223,198.4159,0,U,48909,999,28362,.48371604E-3,.126756E-2,0
YAM-3,2021-059AN,2026-07-24T06:40:17.409792,15.49311627,.00045296,97.6996,34.6811,200.2160,159.8912,0,U,48915,999,28273,.2502878E-3,.13601E-3,0
FARADAY_PHOENIX,2021-059AX,2026-07-24T02:34:13.082304,15.91143550,.00052563,97.6752,47.5703,184.8110,175.3113,0,U,48924,999,28350,.13228325E-2,.416357E-2,.67946825E-4
DEMO8 (TENZING),2021-059CA,2026-07-24T06:59:12.755040,15.56331742,.0006414,97.7015,41.5733,195.1830,164.9232,0,U,48951,999,28307,.36025945E-3,.25317E-3,0
FENGYUN 3E,2021-062A,2026-07-24T06:24:51.429888,14.19908047,.00017765,98.7514,208.2637,23.8746,336.2512,0,U,49008,999,26184,.17313931E-3,.324E-5,0
ISS (NAUKA),2021-066A,2026-07-24T03:40:22.647360,15.49135191,.00069314,51.6315,117.1603,331.5533,28.5077,0,U,49044,999,57667,.22565778E-3,.12066E-3,0
STARLINK-3100,2021-082Q,2026-07-24T07:00:58.131936,14.98325558,.00033232,69.9999,310.0219,269.0864,90.9915,0,U,49144,999,26644,.28269763E-4,.244E-5,0
2021-091B,2021-091B,2026-07-24T06:54:50.359968,15.18711798,.00115254,97.4484,32.3024,271.9106,88.0809,0,U,49316,999,26461,.60412423E-4,.1187E-4,0
SDGSAT 1,2021-100A,2026-07-24T07:31:04.609920,15.19270761,.00108465,97.2620,250.8420,134.2957,225.9170,0,U,49387,999,26155,.32749848E-4,.626E-5,0
TEIKYOSAT-4 (OORURI),2021-102B,2026-07-24T01:00:32.683680,15.09621657,.00125775,97.3661,233.0925,158.5799,201.5959,0,U,49396,999,25828,.10620913E-3,.1649E-4,0
Z-SAT,2021-102E,2026-07-24T05:37:37.754400,15.18521100,.0018236,97.3317,239.4348,115.7295,244.5825,0,U,49399,999,25906,.29329829E-3,.6013E-4,0
HIBARI,2021-102F,2026-07-24T02:29:05.526816,15.32431918,.00130517,97.3219,250.5980,73.9210,286.3468,0,U,49400,999,25984,.45267396E-3,.14146E-3,0
KOSEN-1,2021-102H,2026-07-24T02:21:59.528160,15.27318179,.00152926,97.3174,246.5456,79.8165,280.4798,0,U,49402,999,25965,.34643027E-3,.923E-4,0
GLOBAL-14,2021-106A,2026-07-24T00:54:33.615648,15.52187499,.00186191,42.0044,71.8033,281.1159,78.7592,0,U,49469,999,26385,.4004745E-3,.24838E-3,0
GAOFEN-3 02,2021-109A,2026-07-24T07:18:59.962752,14.42211584,.00016193,98.4104,212.8755,212.7237,147.3852,0,U,49495,999,24566,.55444881E-4,.139E-5,0
GLOBAL-12,2021-115BA,2026-07-24T07:02:39.460992,15.55731005,.00031088,53.1929,225.8180,83.7723,276.3643,0,U,49772,999,26167,.46575071E-3,.32302E-3,0
GLOBAL-13,2021-115BB,2026-07-24T06:33:54.440064,15.47372700,.00003785,53.1957,238.1031,36.0853,324.0181,0,U,49773,999,26150,.40010874E-3,.20413E-3,0
GLOBAL-17,2021-120A,2026-07-24T06:06:55.374912,15.54097560,.00145572,41.9921,188.0955,160.6796,199.4603,0,U,49949,999,26066,.4969494E-3,.3308E-3,0
GLOBAL-16,2021-120B,2026-07-24T04:36:03.572064,15.51814181,.00123127,41.9927,192.9296,150.6154,209.5384,0,U,49950,999,26059,.48424672E-3,.29594E-3,0
XW-3 (CAS-9),2021-131B,2026-07-24T06:18:31.673376,14.41387574,.00039582,98.4980,297.4526,6.2081,353.9157,0,U,50466,999,24045,.11957181E-3,.343E-5,0
ION SCV-004,2022-002K,2026-07-24T02:33:03.993408,15.30777973,.00064043,97.2816,262.0744,208.7438,151.3451,0,U,50993,999,25094,.21372928E-3,.6285E-4,0
ETV-A1,2022-002CE,2026-07-24T05:17:35.285856,15.41389543,.00048526,97.2860,271.4327,189.1293,170.9867,0,U,51060,999,25154,.36447242E-3,.15156E-3,0
BRO-5,2022-002CF,2026-07-24T06:46:20.251776,15.49154362,.00063393,97.2975,279.3274,170.4421,189.6952,0,U,51061,999,25199,.34418648E-3,.18663E-3,0
LUDI TANCE 1-01A (L-SAR 01A),2022-007A,2026-07-24T06:58:10.348320,14.88417779,.00016157,97.8117,212.1845,90.5349,269.6053,0,U,51284,999,24399,.78593911E-4,.674E-5,0
LUDI TANCE 1-01B (L-SAR 01B),2022-018A,2026-07-24T07:46:33.008160,14.88423059,.00016356,97.8122,212.2164,90.9588,269.1816,0,U,51822,999,23923,.77493767E-4,.664E-5,0
