TYVAK-0173              
1 48892U 21059P   26205.13216838  .00001555  00000+0  19998-3 0  9999
2 48892  96.0065 272.3042 0007159 261.1678  98.8730 14.81992098273718
MANDRAKE 2 ABLE         
1 48907U 21059AE  26205.09462879  .00027280  00000+0  38734-3 0  9991
2 48907  97.7032  37.7339 0004473 196.7421 163.3686 15.56389630282863
MANDRAKE 2 BAKER        
1 48908U 21059AF  26205.29778792  .00035440  00000+0  41618-3 0  9990
2 48908  97.6994  41.0941 0003459 183.5506 176.5726 15.61393497283086
PACE-1                  
1 48909U 21059AG  26204.99911094  .00126756  00000+0  48372-3 0  9996
2 48909  97.6727  47.4948 0003088 161.7223 198.4159 15.87175094283622
YAM-3                   
1 48915U 21059AN  26205.27797928  .00013601  00000+0  25029-3 0  9991
2 48915  97.6996  34.6811 0004529 200.2160 159.8912 15.49311627282735
FARADAY_PHOENIX         
1 48924U 21059AX  26205.10709586  .00416357  67947-4  13228-2 0  9996
2 48924  97.6752  47.5703 0005256 184.8110 175.3113 15.91143550283505
DEMO8 (TENZING)         
1 48951U 21059CA  26205.29111985  .00025317  00000+0  36026-3 0  9992
2 48951  97.7015  41.5733 0006414 195.1830 164.9232 15.56331742283077
FENGYUN 3E              
1 49008U 21062A   26205.26726192  .00000324  00000+0  17314-3 0  9999
2 49008  98.7514 208.2637 0001776  23.8746 336.2512 14.19908047261842
ISS (NAUKA)             
1 49044U 21066A   26205.15303990  .00012066  00000+0  22566-3 0  9999
2 49044  51.6315 117.1603 0006931 331.5533  28.5077 15.49135191576674
STARLINK-3100           
1 49144U 21082Q   26205.29233949  .00000244  00000+0  28270-4 0  9993
2 49144  69.9999 310.0219 0003323 269.0864  90.9915 14.98325558266442
2021-091B               
1 49316U 21091B   26205.28808287  .00001187  00000+0  60412-4 0  9997
2 49316  97.4484  32.3024 0011525 271.9106  88.0809 15.18711798264615
SDGSAT 1                
1 49387U 21100A   26205.31324780  .00000626  00000+0  32750-4 0  9992
2 49387  97.2620 250.8420 0010846 134.2957 225.9170 15.19270761261554
TEIKYOSAT-4 (OORURI)    
1 49396U 21102B   26205.04204495  .00001649  00000+0  10621-3 0  9992
2 49396  97.3661 233.0925 0012577 158.5799 201.5959 15.09621657258283
Z-SAT                   
1 49399U 21102E   26205.23446475  .00006013  00000+0  29330-3 0  9999
2 49399  97.3317 239.4348 0018236 115.7295 244.5825 15.18521100259065
HIBARI                  
1 49400U 21102F   26205.10353619  .00014146  00000+0  45267-3 0  9998
2 49400  97.3219 250.5980 0013051  73.9210 286.3468 15.32431918259843
KOSEN-1                 
1 49402U 21102H   26205.09860565  .00009230  00000+0  34643-3 0  9995
2 49402  97.3174 246.5456 0015292  79.8165 280.4798 15.27318179259658
GLOBAL-14               
1 49469U 21106A   26205.03788907  .00024838  00000+0  40047-3 0  9991
2 49469  42.0044  71.8033 0018619 281.1159  78.7592 15.52187499263855
GAOFEN-3 02             
1 49495U 21109A   26205.30486068  .00000139  00000+0  55445-4 0  9993
2 49495  98.4104 212.8755 0001619 212.7237 147.3852 14.42211584245665
GLOBAL-12               
1 49772U 21115BA  26205.29351228  .00032302  00000+0  46575-3 0  9995
2 49772  53.1929 225.8180 0003108  83.7723 276.3643 15.55731005261673
GLOBAL-13               
1 49773U 21115BB  26205.27354676  .00020413  00000+0  40011-3 0  9993
2 49773  53.1957 238.1031 0000378  36.0853 324.0181 15.47372700261502
GLOBAL-17               
1 49949U 21120A   26205.25480758  .00033080  00000+0  49695-3 0  9994
2 49949  41.9921 188.0955 0014557 160.6796 199.4603 15.54097560260660
GLOBAL-16               
1 49950U 21120B   26205.19170801  .00029594  00000+0  48425-3 0  9999
2 49950  41.9927 192.9296 0012312 150.6154 209.5384 15.51814181260598
XW-3 (CAS-9)            
1 50466U 21131B   26205.26286659  .00000343  00000+0  11957-3 0  9993
2 50466  98.4980 297.4526 0003958   6.2081 353.9157 14.41387574240450
ION SCV-004             
1 50993U 22002K   26205.10629622  .00006285  00000+0  21373-3 0  9994
2 50993  97.2816 262.0744 0006404 208.7438 151.3451 15.30777973250941
ETV-A1                  
1 51060U 22002CE  26205.22054729  .00015156  00000+0  36447-3 0  9998
2 51060  97.2860 271.4327 0004852 189.1293 170.9867 15.41389543251542
BRO-5                   
1 51061U 22002CF  26205.28217884  .00018663  00000+0  34419-3 0  9991
2 51061  97.2975 279.3274 0006339 170.4421 189.6952 15.49154362251994
LUDI TANCE 1-01A (L-SA*)
1 51284U 22007A   26205.29039755  .00000674  00000+0  78594-4 0  9999
2 51284  97.8117 212.1845 0001615  90.5349 269.6053 14.88417779243995
LUDI TANCE 1-01B (L-SA*)
1 51822U 22018A   26205.32399315  .00000664  00000+0  77494-4 0  9991
2 51822  97.8122 212.2164 0001635  90.9588 269.1816 14.88423059239237
